[{"OBJECT_NAME":"ONEWEB-0509","OBJECT_ID":"2022-138Q","EPOCH":"2026-03-09T16:42:24.369696","MEAN_MOTION":13.19725247,"ECCENTRICITY":0.00016995,"INCLINATION":87.9241,"RA_OF_ASC_NODE":324.7798,"ARG_OF_PERICENTER":83.8693,"MEAN_ANOMALY":276.2634,"EPHEMERIS_TYPE":0,"CLASSIFICATION_TYPE":"U","NORAD_CAT_ID":54127,"ELEMENT_SET_NO":999,"REV_AT_EPOCH":16368,"BSTAR":0.00019448746,"MEAN_MOTION_DOT":9.1e-7,"MEAN_MOTION_DDOT":0},{"OBJECT_NAME":"SL-8 R\/B","OBJECT_ID":"1972-019B","EPOCH":"2026-03-09T18:55:59.967264","MEAN_MOTION":13.22465033,"ECCENTRICITY":0.00219027,"INCLINATION":82.9705,"RA_OF_ASC_NODE":306.675,"ARG_OF_PERICENTER":105.9174,"MEAN_ANOMALY":323.551,"EPHEMERIS_TYPE":0,"CLASSIFICATION_TYPE":"U","NORAD_CAT_ID":5907,"ELEMENT_SET_NO":999,"REV_AT_EPOCH":60317,"BSTAR":0.00021534016,"MEAN_MOTION_DOT":1.03e-6,"MEAN_MOTION_DDOT":0}]
